ID,Last Name,First Name, Street Address,City,State,Phone Number
3333333,Wentt,Quai,4624 Marquardt Track,New Porter,Virginia,1-665-061-5630 x14884
3333333,Wentt,Quai,4624 Marquardt Track,New Porter,Virginia,1-665-061-5630 x14884
8474235,Carter,Gracie,5564 Ledner Islands,New Jessycastad,Wisconsin,328.600.2116 x47271
3333333,Wentt,Quai,8608 Zechariah Grove,West Jaylin,West Virginia,(860) 230-4091
3333333,Wentt,Quai,866 Cormier Crossing,Melyssatown,Mississippi,865-831-0352 x0621
3333333,Wentt,Quai,3900 Schuster Heights,Abshireberg,Vermont,(750) 305-0814 x724
3333333,Wentt,Quai,3009 Willard Keys,Connborough,Mississippi,1-129-944-5739
3333333,Wentt,Quai,4043 Macejkovic Forks,Spencerburgh,Arizona,939-273-2007
3333333,Wentt,Quai,407 McLaughlin Pines,South Virginie,Colorado,263.662.1846
3333333,Wentt,Quai,424 Leslie Lake,Port Manuel,Montana,(515) 341-1350 x86646
3333333,Wentt,Quai,6235 Rice Port,East Kadenmouth,Montana,523.003.9949 x990
3333333,Wentt,Quai,4701 Kunde Lock,Reillyview,Oklahoma,562.983.2486
3333333,Wentt,Quai,4527 Blake Causeway,East Bellland,Texas,110-649-4153 x49386
3333333,Wentt,Quai,68344 Vanessa Route,Katelynnchester,Florida,(318) 751-8256
3333333,Wentt,Quai,388 Bruen Plaza,Boydburgh,Kentucky,1-294-561-0592 x8361
3333333,Wentt,Quai,96634 Shanahan Divide,South Estelle,Vermont,1-105-270-7872 x362
3333333,Wentt,Quai,5484 Christop Forks,New Julesfurt,Washington,790.121.4485 x2894
3333333,Wentt,Quai,25455 April Land,Port Icieland,Alaska,964-502-4582
3333333,Wentt,Quai,9798 Estelle Mall,East Mabelhaven,North Carolina,861-969-8861
3333333,Wentt,Quai,454 Lebsack Fords,New Madge,North Dakota,508-968-2250
3333333,Wentt,Quai,9597 Jast Station,Port Anahifort,Arkansas,898-691-0976
3333333,Wentt,Quai,16179 Bayer Knolls,McGlynnberg,Minnesota,133.058.4680
3333333,Wentt,Quai,528 Noble Course,Kovacekborough,Wisconsin,841-244-4141 x1404
3333333,Wentt,Quai,7802 Grant Freeway,Strosinborough,North Dakota,459.098.2757
3333333,Wentt,Quai,907 Dianna Radial,Alverafort,Wyoming,239-050-2362 x416
3333333,Wentt,Quai,8795 Lesch Villages,Turcotteton,Georgia,649.565.9600
3333333,Wentt,Quai,9419 Lynch Crest,New Johnathanview,Tennessee,1-929-599-6880 x5227
3333333,Wentt,Quai,477 Andres Cove,Zenafurt,New York,113-858-7236 x5922
3333333,Wentt,Quai,319 Shirley Expressway,East Michelle,North Carolina,311.145.7286
3333333,Wentt,Quai,9902 Schmitt Garden,South Asia,Tennessee,945-251-6561 x0102
3333333,Wentt,Quai,35046 Volkman Cliff,Schultzhaven,Tennessee,1-214-897-8950 x76821
3333333,Wentt,Quai,2233 Nikolaus Club,East Ottoside,Alaska,307.669.2150
3333333,Wentt,Quai,8971 Carrie Lakes,West Jackytown,New Mexico,934-802-5812
3333333,Wentt,Quai,444 Carli Spring,Mohrmouth,Wyoming,941.202.1485 x8231
3333333,Wentt,Quai,674 Hilll Drive,North Tyriqueshire,Idaho,748-978-4725 x9946
3333333,Wentt,Quai,619 Effertz Haven,Jordaneton,Ohio,(368) 924-4332 x689
3333333,Wentt,Quai,387 Shirley Shoals,Antonetteview,Oklahoma,1-864-768-7046 x52080
